#aV2009 12 10  0  0   .00000000      96 DD+AD WGS84 FIT  NGA
## 1561 345600.00000000   900.00000000 55175  .0000000000000
+   32     1  2  3  4  5  6  7  8  9 10 11 12 13 14 15 16 17
+         18 19 20 21 22 23 24 25 26 27 28 29 30 31 32  0  0
+          0  0  0  0  0  0  0  0  0  0  0  0  0  0  0  0  0
+          0  0  0  0  0  0  0  0  0  0  0  0  0  0  0  0  0
+          0  0  0  0  0  0  0  0  0  0  0  0  0  0  0  0  0
++         0  0  0  0  0  0  0  0  0  0  0  0  0  0  0  0  0
++         0  0  0  0  0  0  0  0  0  0  0  0  0  0  0  0  0
++         0  0  0  0  0  0  0  0  0  0  0  0  0  0  0  0  0
++         0  0  0  0  0  0  0  0  0  0  0  0  0  0  0  0  0
++         0  0  0  0  0  0  0  0  0  0  0  0  0  0  0  0  0
%c cc cc ccc ccc cccc cccc cccc cccc ccccc ccccc ccccc ccccc
%c cc cc ccc ccc cccc cccc cccc cccc ccccc ccccc ccccc ccccc
%f  0.0000000  0.000000000  0.00000000000  0.000000000000000
%f  0.0000000  0.000000000  0.00000000000  0.000000000000000
%i    0    0    0    0      0      0      0      0         0
%i    0    0    0    0      0      0      0      0         0
/*      NGA, ST. LOUIS,MO.                                  
/*   EPHEMERIS COMPUTED FROM  3 DAYS OF DATA                
/* CCCCCCCCCCCCCCCCCCCCCCCCCCCCCCCCCCCCCCCCCCCCCCCCCCCCCCCCC
/* CCCCCCCCCCCCCCCCCCCCCCCCCCCCCCCCCCCCCCCCCCCCCCCCCCCCCCCCC
*  2009 12 10 13 15   .00000000                                                 
P  1  -7363.448850  15324.507897 -20479.863427    -70.402891                    
V  1 -25710.418614   2353.013610  11162.354196      -.026461                    
P  2 -16386.649487   -168.488249 -20897.003046    201.868901                    
V  2   9058.908896 -24966.167137  -7354.731576       .046245                    
P  3  20834.525000   4725.307496  15643.041756    485.996570                    
V  3  12370.886419  16495.005908 -20645.547595       .053005                    
P  4 -11076.460371 -12577.342567 -20692.093580   -400.055268                    
V  4  11253.878686 -23542.146923   8719.537507      -.185905                    
P  5 -26460.920947   2196.647079  -1690.968787    -30.912796                    
V  5   1759.136805  -2990.568460 -31606.508336       .055025                    
P  6  20876.058734   8426.093984  14352.562940    263.553694                    
V  6   9510.415151  15450.363976 -23087.536699       .001572                    
P  7   6268.178133 -25045.026248   5870.133802      6.231106                    
V  7   5294.315995  -5889.154237 -30881.586889      -.006511                    
P  8  -2144.968003 -20196.353754  16794.479906       .702781                    
V  8  11037.204198 -18537.546792 -21359.812046       .004936                    
P  9 -14897.162119  18902.811219  10516.582851     93.242112                    
V  9   3134.527385 -14160.843085  28194.233138       .021043                    
P 10 -26021.592592  -1697.877754  -6094.174098    -30.086042                    
V 10   7160.451202  -3284.153545 -30167.387773      -.007706                    
P 11  11593.771830 -21648.050187   9407.477273    -33.538682                    
V 11   2574.246889  13213.551917  26911.688660      -.019506                    
P 12 -20369.710527  11162.981976 -12706.824869   -178.471294                    
V 12 -16400.891762   -284.874734  26055.850801       .051548                    
P 13  -2536.599425 -21742.552757 -15155.833992    306.534471                    
V 13  11508.608293  15128.966618 -23840.159737       .001017                    
P 14  14796.336922  22135.034769    610.841001    -13.917837                    
V 14  -1880.890247    567.904389  32232.978968       .046769                    
P 15 -16480.644786   2698.339295  20702.416108   -318.366691                    
V 15 -15466.820319 -21188.740329  -9471.916447       .011289                    
P 16  25046.591210   3375.307524  -8527.674195    -17.853512                    
V 16 -10545.867803   3186.954664 -29305.111583      -.041984                    
P 17 -15763.872441 -21516.693209   -195.356768    110.481320                    
V 17   1976.240627  -1848.209595  31590.198674       .037422                    
P 18   -217.566046  15841.047911  21552.264379     33.698081                    
V 18 -26787.141280   2239.125528  -2310.548189       .027737                    
P 19  15646.657402  -3369.274926  21272.934684     -3.171668                    
V 19  14145.700039  22878.122043  -6514.956465      -.020238                    
P 20  16144.055894 -14123.844001 -15756.936623     65.763663                    
V 20  19988.032964   -664.919543  21303.183290      -.007996                    
P 21  -2004.105857  24057.374272  10625.500683    -26.653126                    
V 21  -8688.374408  10749.949359 -27340.213921      -.023823                    
P 22  13192.404847  12963.492513  19251.496170    184.313171                    
V 22 -23913.036339   3742.790720  13909.805752      -.008494                    
P 23   7597.568219 -14112.259220 -21152.270828    384.652911                    
V 23  16668.963756  21040.013825  -8355.184266      -.006816                    
P 24 -13366.719374  22917.693401  -2862.425828    243.767570                    
V 24  -1013.132378  -4649.613166 -31070.582894       .033636                    
P 25   8405.477691 -25290.124098   -516.472077     48.959486                    
V 25   1884.685778   1720.449108 -31864.681245       .119959                    
P 26   9134.360348  23168.615491   7971.114597     -1.369872                    
V 26  -7905.095759  -7920.638491  30518.639007      -.024321                    
P 27 -16246.801454  15399.637494  14934.707096    107.176795                    
V 27   4528.888636 -17241.012340  23889.736750       .032971                    
P 28 -10545.535084 -13436.745707  20870.279878    -24.827535                    
V 28  25213.795991  -2948.224001  10778.186280       .003215                    
P 29   -271.686401  20261.718710 -17101.231450     81.009148                    
V 29 -14126.443396 -16797.470880 -19534.433643       .031126                    
P 30  -9291.236759  15700.879449 -19669.180646    200.361901                    
V 30 -24063.751856   2774.848907  13913.330839       .032480                    
P 31  11494.266640  10142.471993 -21453.933792    -59.020303                    
V 31 -11302.162866  25334.366078   6008.066524       .010287                    
P 32  23275.849070  -7562.416077  -9550.697526    140.925710                    
V 32  12859.318004   2347.343665  28687.002375      -.077397                    
EOF
